[
  {
    "OBJECT_NAME": "SKYSAT-B",
    "OBJECT_ID": "2014-037D",
    "EPOCH": "2025-04-16T16:33:58.300704",
    "MEAN_MOTION": 14.86329008,
    "ECCENTRICITY": 0.0004929,
    "INCLINATION": 98.3401,
    "RA_OF_ASC_NODE": 38.3607,
    "ARG_OF_PERICENTER": 208.6833,
    "MEAN_ANOMALY": 151.4111,
    "EPHEMERIS_TYPE": 0,
    "CLASSIFICATION_TYPE": "U",
    "NORAD_CAT_ID": 40072,
    "ELEMENT_SET_NO": 999,
    "REV_AT_EPOCH": 58257,
    "BSTAR": 0.00037294,
    "MEAN_MOTION_DOT": 3.227e-5,
    "MEAN_MOTION_DDOT": 0
  },
  {
    "OBJECT_NAME": "WORLDVIEW-3 (WV-3)",
    "OBJECT_ID": "2014-048A",
    "EPOCH": "2025-04-16T22:17:48.761376",
    "MEAN_MOTION": 14.85062673,
    "ECCENTRICITY": 0.0003886,
    "INCLINATION": 97.86,
    "RA_OF_ASC_NODE": 182.115,
    "ARG_OF_PERICENTER": 291.7934,
    "MEAN_ANOMALY": 68.2867,
    "EPHEMERIS_TYPE": 0,
    "CLASSIFICATION_TYPE": "U",
    "NORAD_CAT_ID": 40115,
    "ELEMENT_SET_NO": 999,
    "REV_AT_EPOCH": 57864,
    "BSTAR": 0.00053057,
    "MEAN_MOTION_DOT": 4.48e-5,
    "MEAN_MOTION_DDOT": 0
  },
  {
    "OBJECT_NAME": "GAOFEN-2",
    "OBJECT_ID": "2014-049A",
    "EPOCH": "2025-04-16T22:26:47.304672",
    "MEAN_MOTION": 14.80596111,
    "ECCENTRICITY": 0.0006358,
    "INCLINATION": 98.0643,
    "RA_OF_ASC_NODE": 165.2795,
    "ARG_OF_PERICENTER": 145.4518,
    "MEAN_ANOMALY": 214.7108,
    "EPHEMERIS_TYPE": 0,
    "CLASSIFICATION_TYPE": "U",
    "NORAD_CAT_ID": 40118,
    "ELEMENT_SET_NO": 999,
    "REV_AT_EPOCH": 57616,
    "BSTAR": 0.00057772,
    "MEAN_MOTION_DOT": 4.382e-5,
    "MEAN_MOTION_DDOT": 0
  },
  {
    "OBJECT_NAME": "YAOGAN-21",
    "OBJECT_ID": "2014-053A",
    "EPOCH": "2025-04-16T21:59:49.517376",
    "MEAN_MOTION": 15.23684491,
    "ECCENTRICITY": 0.0014953,
    "INCLINATION": 97.2046,
    "RA_OF_ASC_NODE": 160.0709,
    "ARG_OF_PERICENTER": 204.2656,
    "MEAN_ANOMALY": 155.7879,
    "EPHEMERIS_TYPE": 0,
    "CLASSIFICATION_TYPE": "U",
    "NORAD_CAT_ID": 40143,
    "ELEMENT_SET_NO": 999,
    "REV_AT_EPOCH": 59002,
    "BSTAR": 0.0014041,
    "MEAN_MOTION_DOT": 0.00033848,
    "MEAN_MOTION_DDOT": 0
  },
  {
    "OBJECT_NAME": "YAOGAN-22",
    "OBJECT_ID": "2014-063A",
    "EPOCH": "2025-04-16T21:59:08.837664",
    "MEAN_MOTION": 13.15508185,
    "ECCENTRICITY": 0.0006859,
    "INCLINATION": 100.7063,
    "RA_OF_ASC_NODE": 247.3596,
    "ARG_OF_PERICENTER": 72.9777,
    "MEAN_ANOMALY": 287.2085,
    "EPHEMERIS_TYPE": 0,
    "CLASSIFICATION_TYPE": "U",
    "NORAD_CAT_ID": 40275,
    "ELEMENT_SET_NO": 999,
    "REV_AT_EPOCH": 50376,
    "BSTAR": 2.9715e-5,
    "MEAN_MOTION_DOT": -3.5e-7,
    "MEAN_MOTION_DDOT": 0
  },
  {
    "OBJECT_NAME": "ASNARO",
    "OBJECT_ID": "2014-070A",
    "EPOCH": "2025-04-16T21:56:56.785632",
    "MEAN_MOTION": 15.19721748,
    "ECCENTRICITY": 0.0007142,
    "INCLINATION": 97.3795,
    "RA_OF_ASC_NODE": 188.3991,
    "ARG_OF_PERICENTER": 176.9962,
    "MEAN_ANOMALY": 183.1317,
    "EPHEMERIS_TYPE": 0,
    "CLASSIFICATION_TYPE": "U",
    "NORAD_CAT_ID": 40298,
    "ELEMENT_SET_NO": 999,
    "REV_AT_EPOCH": 57927,
    "BSTAR": 0.0025644,
    "MEAN_MOTION_DOT": 0.00055123,
    "MEAN_MOTION_DDOT": 0
  },
  {
    "OBJECT_NAME": "YAOGAN-24",
    "OBJECT_ID": "2014-072A",
    "EPOCH": "2025-04-16T22:13:29.144928",
    "MEAN_MOTION": 14.7634754,
    "ECCENTRICITY": 0.0012816,
    "INCLINATION": 98.0902,
    "RA_OF_ASC_NODE": 237.2129,
    "ARG_OF_PERICENTER": 188.6313,
    "MEAN_ANOMALY": 171.4677,
    "EPHEMERIS_TYPE": 0,
    "CLASSIFICATION_TYPE": "U",
    "NORAD_CAT_ID": 40310,
    "ELEMENT_SET_NO": 999,
    "REV_AT_EPOCH": 56083,
    "BSTAR": 0.00054335,
    "MEAN_MOTION_DOT": 3.725e-5,
    "MEAN_MOTION_DDOT": 0
  },
  {
    "OBJECT_NAME": "CBERS 4",
    "OBJECT_ID": "2014-079A",
    "EPOCH": "2025-04-16T22:50:15.166752",
    "MEAN_MOTION": 14.35527633,
    "ECCENTRICITY": 0.0001873,
    "INCLINATION": 98.3574,
    "RA_OF_ASC_NODE": 172.7153,
    "ARG_OF_PERICENTER": 110.7446,
    "MEAN_ANOMALY": 249.3941,
    "EPHEMERIS_TYPE": 0,
    "CLASSIFICATION_TYPE": "U",
    "NORAD_CAT_ID": 40336,
    "ELEMENT_SET_NO": 999,
    "REV_AT_EPOCH": 54280,
    "BSTAR": 0.00020113,
    "MEAN_MOTION_DOT": 5.37e-6,
    "MEAN_MOTION_DDOT": 0
  },
  {
    "OBJECT_NAME": "YAOGAN-26",
    "OBJECT_ID": "2014-088A",
    "EPOCH": "2025-04-16T21:57:32.174208",
    "MEAN_MOTION": 15.3107639,
    "ECCENTRICITY": 0.0007936,
    "INCLINATION": 97.0675,
    "RA_OF_ASC_NODE": 117.6707,
    "ARG_OF_PERICENTER": 134.9408,
    "MEAN_ANOMALY": 225.2479,
    "EPHEMERIS_TYPE": 0,
    "CLASSIFICATION_TYPE": "U",
    "NORAD_CAT_ID": 40362,
    "ELEMENT_SET_NO": 999,
    "REV_AT_EPOCH": 57216,
    "BSTAR": 0.0018317,
    "MEAN_MOTION_DOT": 0.00055303,
    "MEAN_MOTION_DDOT": 0
  },
  {
    "OBJECT_NAME": "SMAP",
    "OBJECT_ID": "2015-003A",
    "EPOCH": "2025-04-16T23:01:45.831936",
    "MEAN_MOTION": 14.63444701,
    "ECCENTRICITY": 0.0001603,
    "INCLINATION": 98.13,
    "RA_OF_ASC_NODE": 115.0624,
    "ARG_OF_PERICENTER": 84.3955,
    "MEAN_ANOMALY": 275.743,
    "EPHEMERIS_TYPE": 0,
    "CLASSIFICATION_TYPE": "U",
    "NORAD_CAT_ID": 40376,
    "ELEMENT_SET_NO": 999,
    "REV_AT_EPOCH": 54528,
    "BSTAR": 0.0003827,
    "MEAN_MOTION_DOT": 1.934e-5,
    "MEAN_MOTION_DDOT": 0
  },
  {
    "OBJECT_NAME": "KOMPSAT-3A",
    "OBJECT_ID": "2015-014A",
    "EPOCH": "2025-04-16T21:10:22.167264",
    "MEAN_MOTION": 15.34951376,
    "ECCENTRICITY": 0.000208,
    "INCLINATION": 97.6529,
    "RA_OF_ASC_NODE": 70.3247,
    "ARG_OF_PERICENTER": 36.9678,
    "MEAN_ANOMALY": 323.1708,
    "EPHEMERIS_TYPE": 0,
    "CLASSIFICATION_TYPE": "U",
    "NORAD_CAT_ID": 40536,
    "ELEMENT_SET_NO": 999,
    "REV_AT_EPOCH": 55606,
    "BSTAR": 0.0015871,
    "MEAN_MOTION_DOT": 0.00054043,
    "MEAN_MOTION_DDOT": 0
  },
  {
    "OBJECT_NAME": "SENTINEL-2A",
    "OBJECT_ID": "2015-028A",
    "EPOCH": "2025-04-16T22:06:09.635904",
    "MEAN_MOTION": 14.30823527,
    "ECCENTRICITY": 0.0001083,
    "INCLINATION": 98.5622,
    "RA_OF_ASC_NODE": 182.8651,
    "ARG_OF_PERICENTER": 98.2809,
    "MEAN_ANOMALY": 261.8496,
    "EPHEMERIS_TYPE": 0,
    "CLASSIFICATION_TYPE": "U",
    "NORAD_CAT_ID": 40697,
    "ELEMENT_SET_NO": 999,
    "REV_AT_EPOCH": 51277,
    "BSTAR": 0.00023707,
    "MEAN_MOTION_DOT": 5.78e-6,
    "MEAN_MOTION_DDOT": 0
  },
  {
    "OBJECT_NAME": "GAOFEN-8",
    "OBJECT_ID": "2015-030A",
    "EPOCH": "2025-04-16T22:18:53.188992",
    "MEAN_MOTION": 15.30480405,
    "ECCENTRICITY": 0.0012031,
    "INCLINATION": 97.6855,
    "RA_OF_ASC_NODE": 275.1386,
    "ARG_OF_PERICENTER": 262.9026,
    "MEAN_ANOMALY": 97.0846,
    "EPHEMERIS_TYPE": 0,
    "CLASSIFICATION_TYPE": "U",
    "NORAD_CAT_ID": 40701,
    "ELEMENT_SET_NO": 999,
    "REV_AT_EPOCH": 54594,
    "BSTAR": 0.0021846,
    "MEAN_MOTION_DOT": 0.00064926,
    "MEAN_MOTION_DDOT": 0
  },
  {
    "OBJECT_NAME": "CARBONITE 1 (CBNT-1)",
    "OBJECT_ID": "2015-032D",
    "EPOCH": "2025-04-16T21:39:53.107200",
    "MEAN_MOTION": 14.81510201,
    "ECCENTRICITY": 0.0013647,
    "INCLINATION": 97.6457,
    "RA_OF_ASC_NODE": 298.7129,
    "ARG_OF_PERICENTER": 250.0524,
    "MEAN_ANOMALY": 109.922,
    "EPHEMERIS_TYPE": 0,
    "CLASSIFICATION_TYPE": "U",
    "NORAD_CAT_ID": 40718,
    "ELEMENT_SET_NO": 999,
    "REV_AT_EPOCH": 52618,
    "BSTAR": 0.0011107,
    "MEAN_MOTION_DOT": 8.681e-5,
    "MEAN_MOTION_DDOT": 0
  }
]
