SKYSAT-B                
1 40072U 14037D   25106.69025811  .00003227  00000+0  37294-3 0  9995
2 40072  98.3401  38.3607 0004929 208.6833 151.4111 14.86329008582573
WORLDVIEW-3 (WV-3)      
1 40115U 14048A   25106.92903659  .00004480  00000+0  53057-3 0  9993
2 40115  97.8600 182.1150 0003886 291.7934  68.2867 14.85062673578640
GAOFEN-2                
1 40118U 14049A   25106.93526973  .00004382  00000+0  57772-3 0  9997
2 40118  98.0643 165.2795 0006358 145.4518 214.7108 14.80596111576165
YAOGAN-21               
1 40143U 14053A   25106.91654534  .00033848  00000+0  14041-2 0  9993
2 40143  97.2046 160.0709 0014953 204.2656 155.7879 15.23684491590023
YAOGAN-22               
1 40275U 14063A   25106.91607451 -.00000035  00000+0  29715-4 0  9995
2 40275 100.7063 247.3596 0006859  72.9777 287.2085 13.15508185503760
ASNARO                  
1 40298U 14070A   25106.91454613  .00055123  00000+0  25644-2 0  9990
2 40298  97.3795 188.3991 0007142 176.9962 183.1317 15.19721748579277
YAOGAN-24               
1 40310U 14072A   25106.92603177  .00003725  00000+0  54335-3 0  9990
2 40310  98.0902 237.2129 0012816 188.6313 171.4677 14.76347540560838
CBERS 4                 
1 40336U 14079A   25106.95156443  .00000537  00000+0  20113-3 0  9992
2 40336  98.3574 172.7153 0001873 110.7446 249.3941 14.35527633542802
YAOGAN-26               
1 40362U 14088A   25106.91495572  .00055303  00000+0  18317-2 0  9999
2 40362  97.0675 117.6707 0007936 134.9408 225.2479 15.31076390572161
SMAP                    
1 40376U 15003A   25106.95955824  .00001934  00000+0  38270-3 0  9999
2 40376  98.1300 115.0624 0001603  84.3955 275.7430 14.63444701545282
KOMPSAT-3A              
1 40536U 15014A   25106.88220101  .00054043  00000+0  15871-2 0  9994
2 40536  97.6529  70.3247 0002080  36.9678 323.1708 15.34951376556060
SENTINEL-2A             
1 40697U 15028A   25106.92094486  .00000578  00000+0  23707-3 0  9999
2 40697  98.5622 182.8651 0001083  98.2809 261.8496 14.30823527512772
GAOFEN-8                
1 40701U 15030A   25106.92978228  .00064926  00000+0  21846-2 0  9991
2 40701  97.6855 275.1386 0012031 262.9026  97.0846 15.30480405545941
CARBONITE 1 (CBNT-1)    
1 40718U 15032D   25106.90269800  .00008681  00000+0  11107-2 0  9993
2 40718  97.6457 298.7129 0013647 250.0524 109.9220 14.81510201526185
